NORAD_CAT_ID,OBJECT_NAME,OBJECT_TYPE,EPOCH,MEAN_MOTION,ECCENTRICITY,INCLINATION,RA_OF_ASC_NODE,ARG_OF_PERICENTER,MEAN_ANOMALY,BSTAR,MEAN_MOTION_DOT,MEAN_MOTION_DDOT,TLE_LINE0,TLE_LINE1,TLE_LINE2,SEMIMAJOR_AXIS,PERIOD,APOGEE,PERIGEE,DECAYED
55308.0,STARLINK-5292,PAYLOAD,2023-07-28 02:21:12,15.50281867,0.0002612,69.9967,256.6427,291.5706,68.5201,-0.002004,-0.00112395,0.0,0 STARLINK-5292,1 55308U 23010AR  23209.09805789 -.00112395  00000-0 -20040-2 0  9990,2 55308  69.9967 256.6427 0002612 291.5706  68.5201 15.50281867 30246,6794.039,92.886,417.679,414.13,0.0
55308.0,STARLINK-5292,PAYLOAD,2023-07-28 14:00:01,15.49124984,0.0003109,69.9999,255.3158,270.8767,279.8336,-0.018004,-0.00892607,0.0,0 STARLINK-5292,1 55308U 23010AR  23209.58334491 -.00892607  00000-0 -18004-1 0  9998,2 55308  69.9999 255.3158 0003109 270.8767 279.8336 15.49124984 30326,6797.422,92.956,421.4,417.173,0.0
55308.0,STARLINK-5292,PAYLOAD,2023-07-29 06:00:00,15.47844717,0.0003373,70.0003,253.5007,267.7981,38.1383,-0.019934,-0.00953444,0.0,0 STARLINK-5292,1 55308U 23010AR  23210.25001157 -.00953444  00000-0 -19934-1 0  9994,2 55308  70.0003 253.5007 0003373 267.7981  38.1383 15.47844717 30424,6801.169,93.033,425.328,420.74,0.0
55308.0,STARLINK-5292,PAYLOAD,2023-07-29 22:00:01,15.46483239,0.0003358,69.9997,251.6891,270.8532,147.2622,-0.018476,-0.00840109,0.0,0 STARLINK-5292,1 55308U 23010AR  23210.91668981 -.00840109  00000-0 -18476-1 0  9994,2 55308  69.9997 251.6891 0003358 270.8532 147.2622 15.46483239 30529,6805.16,93.114,429.311,424.74,0.0
55308.0,STARLINK-5292,PAYLOAD,2023-07-30 06:00:02,15.45885779,0.0003293,69.9998,250.7845,271.5804,201.4,-0.021342,-0.00953664,0.0,0 STARLINK-5292,1 55308U 23010AR  23211.25002315 -.00953664  00000-0 -21342-1 0  9992,2 55308  69.9998 250.7845 0003293 271.5804 201.4000 15.45885779 30580,6806.914,93.15,431.02,426.537,0.0
55308.0,STARLINK-5292,PAYLOAD,2023-07-30 22:00:00,15.44527163,0.0003197,69.9994,248.9785,268.873,311.4607,-0.019767,-0.00840297,0.0,0 STARLINK-5292,1 55308U 23010AR  23211.91667824 -.00840297  00000-0 -19767-1 0  9992,2 55308  69.9994 248.9785 0003197 268.8730 311.4607 15.44527163 30683,6810.905,93.232,434.947,430.592,0.0
55308.0,STARLINK-5292,PAYLOAD,2023-07-31 14:00:01,15.43266933,0.0003436,69.9988,247.1761,273.4606,51.1375,-0.022579,-0.00925144,0.0,0 STARLINK-5292,1 55308U 23010AR  23212.58334491 -.00925144  00000-0 -22579-1 0  9997,2 55308  69.9988 247.1761 0003436 273.4606  51.1375 15.43266933 30786,6814.612,93.309,438.819,434.136,0.0
55308.0,STARLINK-5292,PAYLOAD,2023-08-01 22:00:00,15.4061536,0.0003407,69.9984,243.5813,269.7807,253.9973,-0.022572,-0.00852019,0.0,0 STARLINK-5292,1 55308U 23010AR  23213.91667824 -.00852019  00000-0 -22572-1 0  9997,2 55308  69.9984 243.5813 0003407 269.7807 253.9973 15.40615360 30997,6822.429,93.469,446.618,441.97,0.0
55308.0,STARLINK-5292,PAYLOAD,2023-08-02 06:00:00,15.40007988,0.0003445,69.9987,242.6848,270.3206,301.2871,-0.02571,-0.00943028,0.0,0 STARLINK-5292,1 55308U 23010AR  23214.25001157 -.00943028  00000-0 -25710-1 0  9994,2 55308  69.9987 242.6848 0003445 270.3206 301.2871 15.40007988 31043,6824.223,93.506,448.439,443.737,0.0
55308.0,STARLINK-5292,PAYLOAD,2023-08-02 22:00:01,15.38659859,0.0003529,69.9983,240.8943,266.9506,38.0533,-0.024178,-0.00855386,0.0,0 STARLINK-5292,1 55308U 23010AR  23214.91668981 -.00855386  00000-0 -24178-1 0  9997,2 55308  69.9983 240.8943 0003529 266.9506  38.0533 15.38659859 31140,6828.208,93.588,452.483,447.664,0.0
55308.0,STARLINK-5292,PAYLOAD,2023-08-03 14:00:01,15.37404174,0.0003563,69.9982,239.1073,275.6534,119.4667,-0.027763,-0.00935644,0.0,0 STARLINK-5292,1 55308U 23010AR  23215.58334491 -.00935644  00000-0 -27763-1 0  9996,2 55308  69.9982 239.1073 0003563 275.6534 119.4667 15.37404174 31240,6831.926,93.664,456.225,451.357,0.0
55308.0,STARLINK-5292,PAYLOAD,2023-08-04 22:00:00,15.34743341,0.0003282,69.9986,235.5444,267.8933,298.2482,-0.027113,-0.00845768,0.0,0 STARLINK-5292,1 55308U 23010AR  23216.91667824 -.00845768  00000-0 -27113-1 0  9999,2 55308  69.9986 235.5444 0003282 267.8933 298.2482 15.34743341 31453,6839.82,93.827,463.93,459.44,0.0
55308.0,STARLINK-5292,PAYLOAD,2023-08-05 06:00:00,15.341147,0.000333,69.9989,234.656,270.2793,336.6589,-0.02992,-0.00909291,0.0,0 STARLINK-5292,1 55308U 23010AR  23217.25001157 -.00909291  00000-0 -29920-1 0  9998,2 55308  69.9989 234.6560 0003330 270.2793 336.6589 15.34114700 31503,6841.688,93.865,465.832,461.275,0.0
55308.0,STARLINK-5292,PAYLOAD,2023-08-06 06:00:00,15.32156556,0.0003392,69.9993,231.9955,271.2094,93.4226,-0.031743,-0.00906966,0.0,0 STARLINK-5292,1 55308U 23010AR  23218.25001157 -.00906966  00000-0 -31743-1 0  9991,2 55308  69.9993 231.9955 0003392 271.2094  93.4226 15.32156556 31654,6847.516,93.985,471.704,467.059,0.0
55308.0,STARLINK-5292,PAYLOAD,2023-08-07 06:00:00,15.30195438,0.0003254,69.9996,229.3429,272.2666,203.0194,-0.033449,-0.00899518,0.0,0 STARLINK-5292,1 55308U 23010AR  23219.25001157 -.00899518  00000-0 -33449-1 0  9991,2 55308  69.9996 229.3429 0003254 272.2666 203.0194 15.30195438 31818,6853.366,94.106,477.461,473.001,0.0
55308.0,STARLINK-5292,PAYLOAD,2023-08-08 06:00:00,15.28231707,0.0003161,69.9996,226.6982,269.7616,309.1382,-0.034962,-0.00886045,0.0,0 STARLINK-5292,1 55308U 23010AR  23220.25001157 -.00886045  00000-0 -34962-1 0  9995,2 55308  69.9996 226.6982 0003161 269.7616 309.1382 15.28231707 31965,6859.235,94.227,483.269,478.932,0.0
55308.0,STARLINK-5292,PAYLOAD,2023-08-08 22:00:00,15.2693993,0.0003222,69.9993,224.9395,263.9817,20.0674,-0.036227,-0.00882856,0.0,0 STARLINK-5292,1 55308U 23010AR  23220.91667824 -.00882856  00000-0 -36227-1 0  9999,2 55308  69.9993 224.9395 0003222 263.9817  20.0674 15.26939930 32064,6863.103,94.306,487.18,482.757,0.0
55308.0,STARLINK-5292,PAYLOAD,2023-08-09 14:00:01,15.25661664,0.0003344,69.999,223.1844,271.2141,74.8681,-0.040365,-0.00953055,0.0,0 STARLINK-5292,1 55308U 23010AR  23221.58334491 -.00953055  00000-0 -40365-1 0  9992,2 55308  69.9990 223.1844 0003344 271.2141  74.8681 15.25661664 32169,6866.936,94.385,491.098,486.505,0.0
55308.0,STARLINK-5292,PAYLOAD,2023-08-10 06:00:00,15.24344509,0.0003371,69.9992,221.433,271.0624,133.9297,-0.040994,-0.0093195,0.0,0 STARLINK-5292,1 55308U 23010AR  23222.25001157 -.00931950  00000-0 -40994-1 0  9995,2 55308  69.9992 221.4330 0003371 271.0624 133.9297 15.24344509 32262,6870.891,94.467,495.073,490.44,0.0
55308.0,STARLINK-5292,PAYLOAD,2023-08-11 14:00:01,15.217477,0.0003116,69.9984,217.9405,272.7279,240.6827,-0.045374,-0.00953164,0.0,0 STARLINK-5292,1 55308U 23010AR  23223.58334491 -.00953164  00000-0 -45374-1 0  9990,2 55308  69.9984 217.9405 0003116 272.7279 240.6827 15.21747700 32472,6878.706,94.628,502.714,498.427,0.0
55308.0,STARLINK-5292,PAYLOAD,2023-08-12 06:00:00,15.20421132,0.0003169,69.9984,216.1996,271.0478,291.8888,-0.045283,-0.00917612,0.0,0 STARLINK-5292,1 55308U 23010AR  23224.25001157 -.00917612  00000-0 -45283-1 0  9992,2 55308  69.9984 216.1996 0003169 271.0478 291.8888 15.20421132 32572,6882.706,94.711,506.753,502.39,0.0
55308.0,STARLINK-5292,PAYLOAD,2023-08-13 06:00:00,15.18461578,0.0003239,69.9982,213.5947,270.7353,0.6116,-0.047654,-0.00912526,0.0,0 STARLINK-5292,1 55308U 23010AR  23225.25001157 -.00912526  00000-0 -47654-1 0  9996,2 55308  69.9982 213.5947 0003239 270.7353   0.6116 15.18461578 32725,6888.626,94.833,512.723,508.26,0.0
55308.0,STARLINK-5292,PAYLOAD,2023-08-14 06:00:02,15.16505165,0.0003274,69.9981,210.9976,271.9527,60.8256,-0.050393,-0.00912169,0.0,0 STARLINK-5292,1 55308U 23010AR  23226.25002315 -.00912169  00000-0 -50393-1 0  9991,2 55308  69.9981 210.9976 0003274 271.9527  60.8256 15.16505165 32870,6894.55,94.955,518.672,514.158,0.0
55308.0,STARLINK-5292,PAYLOAD,2023-08-15 06:00:00,15.14548564,0.0003246,69.9982,208.4083,273.8117,113.2312,-0.05326,-0.00911847,0.0,0 STARLINK-5292,1 55308U 23010AR  23227.25001157 -.00911847  00000-0 -53260-1 0  9993,2 55308  69.9982 208.4083 0003246 273.8117 113.2312 15.14548564 33029,6900.486,95.078,524.591,520.112,0.0
55308.0,STARLINK-5292,PAYLOAD,2023-08-15 18:00:00,15.1355133,0.0003133,69.9984,207.1164,268.2828,323.2892,-0.052984,-0.00883993,0.0,0 STARLINK-5292,1 55308U 23010AR  23227.75001157 -.00883993  00000-0 -52984-1 0  9990,2 55308  69.9984 207.1164 0003133 268.2828 323.2892 15.13551330 33108,6903.517,95.14,527.545,523.219,0.0
55308.0,STARLINK-5292,PAYLOAD,2023-08-16 22:00:00,15.11286788,0.0003141,69.9988,204.11,269.8034,192.1344,-0.057431,-0.00898258,0.0,0 STARLINK-5292,1 55308U 23010AR  23228.91667824 -.00898258  00000-0 -57431-1 0  9990,2 55308  69.9988 204.1100 0003141 269.8034 192.1344 15.11286788 33288,6910.412,95.283,534.447,530.106,0.0
55308.0,STARLINK-5292,PAYLOAD,2023-08-17 14:00:01,15.1000481,0.0003095,69.9986,202.3968,275.0036,211.4192,-0.063583,-0.00955096,0.0,0 STARLINK-5292,1 55308U 23010AR  23229.58334491 -.00955096  00000-0 -63583-1 0  9994,2 55308  69.9986 202.3968 0003095 275.0036 211.4192 15.10004810 33387,6914.322,95.364,538.327,534.047,0.0
55308.0,STARLINK-5292,PAYLOAD,2023-08-18 06:00:02,15.08673294,0.0003081,69.999,200.6869,276.3038,231.5453,-0.062098,-0.00903209,0.0,0 STARLINK-5292,1 55308U 23010AR  23230.25002315 -.00903209  00000-0 -62098-1 0  9996,2 55308  69.9990 200.6869 0003081 276.3038 231.5453 15.08673294 33483,6918.39,95.448,542.387,538.123,0.0
55308.0,STARLINK-5292,PAYLOAD,2023-08-18 22:00:00,15.07379837,0.0003025,69.9992,198.9805,269.9354,256.0656,-0.064669,-0.00907572,0.0,0 STARLINK-5292,1 55308U 23010AR  23230.91667824 -.00907572  00000-0 -64669-1 0  9994,2 55308  69.9992 198.9805 0003025 269.9354 256.0656 15.07379837 33584,6922.347,95.53,546.306,542.118,0.0
55308.0,STARLINK-5292,PAYLOAD,2023-08-19 14:00:01,15.06087713,0.0003048,69.999,197.2774,274.4053,266.7604,-0.07041,-0.00950543,0.0,0 STARLINK-5292,1 55308U 23010AR  23231.58335648 -.00950543  00000-0 -70410-1 0  9991,2 55308  69.9990 197.2774 0003048 274.4053 266.7604 15.06087713 33681,6926.306,95.612,550.282,546.06,0.0
